KUIPER-00133            
1 65764U 25217C   25341.00002315 -.00031795  00000+0 -41631-2 0  9994
2 65764  51.9028 102.9579 0011302  13.8086  55.2332 14.79863235  5251
KUIPER-00139            
1 65765U 25217D   25340.62292935  .00017106  00000+0  13222-2 0  9994
2 65765  51.8870  99.9224 0007643 359.3895   0.7066 15.01574229 11026
KUIPER-00142            
1 65766U 25217E   25341.00002315 -.01022062  00000+0 -37158-1 0  9992
2 65766  51.8718  92.2679 0003080  16.4615 228.5436 15.30444911  3927
KUIPER-00145            
1 65767U 25217F   25341.00002315 -.00265450  00000+0 -11921-1 0  9992
2 65767  51.8828  93.1728 0006903 324.5811 160.8343 15.21838626  5201
KUIPER-00147            
1 65768U 25217G   25341.00002315 -.00096945  00000+0 -55858-2 0  9992
2 65768  51.8791  94.5503 0010069 355.0102 146.2670 15.12269910  5066
KUIPER-00148            
1 65769U 25217H   25341.00002315 -.00711984  00000+0 -35505-1 0  9996
2 65769  51.8721  94.4607 0008291  21.4935 221.5961 15.19413653  3594
KUIPER-00150            
1 65770U 25217J   25341.00002315 -.00040860  00000+0 -49171-2 0  9991
2 65770  51.8976 100.4868 0009147   8.6609  34.6228 14.83508225  5570
KUIPER-00151            
1 65771U 25217K   25341.00002315 -.00294179  00000+0 -18904-1 0  9995
2 65771  51.9026  95.1597 0003016 346.9859 305.2185 15.09442300  5862
